GPS BIIF-6  (PRN 06)    
1 39741U 14026A   26176.93636039 -.00000104  00000+0  00000+0 0  9992
2 39741  56.4938 331.1769 0038119 326.3471  33.4038  2.00560487 88716
COSMOS 2500 (755)       
1 40001U 14032A   26177.42369457 -.00000084  00000+0  00000+0 0  9999
2 40001  65.2268 313.3678 0007725 185.8018 174.1783  2.13105965 93655
GPS BIIF-7  (PRN 09)    
1 40105U 14045A   26177.02815772 -.00000068  00000+0  00000+0 0  9992
2 40105  55.3587  88.1127 0033686 118.2750 242.0678  2.00559107 86251
GSAT0201 (GALILEO 5)    
1 40128U 14050A   26177.04069355 -.00000070  00000+0  00000+0 0  9996
2 40128  48.8656 273.0732 1675889 179.7342 180.4220  1.85520188 78487
GSAT0202 (GALILEO 6)    
1 40129U 14050B   26177.29620125 -.00000065  00000+0  00000+0 0  9996
2 40129  48.8820 272.1482 1677100 180.4759 179.3977  1.85520779 80656
IRNSS-1C                
1 40269U 14061A   26176.68398682 -.00000155  00000+0  00000+0 0  9995
2 40269   6.5386  88.7700 0022592   3.4967 150.6688  1.00267985 42772
GPS BIIF-8  (PRN 03)    
1 40294U 14068A   26176.89738811 -.00000085  00000+0  00000+0 0  9997
2 40294  56.9936  30.6191 0067228  70.9208 289.8621  2.00576883 85389
COSMOS 2501 (702K)      
1 40315U 14075A   26177.21663207  .00000105  00000+0  00000+0 0  9994
2 40315  63.6151 190.0588 0022237 210.4369 149.4832  2.13109644 90043
GPS BIIF-9  (PRN 26)    
1 40534U 15013A   26177.03735334  .00000087  00000+0  00000+0 0  9990
2 40534  53.1674 203.8114 0109747  40.1916 320.6840  2.00550980 82004
GSAT0203 (GALILEO 7)    
1 40544U 15017A   26177.59813448 -.00000096  00000+0  00000+0 0  9990
2 40544  56.7831 341.3391 0002131 269.4919  90.4779  1.70476365 69369
GSAT0204 (GALILEO 8)    
1 40545U 15017B   26174.92103312 -.00000099  00000+0  00000+0 0  9990
2 40545  56.7909 341.4306 0002093 241.0442 118.9316  1.70475870 32360
BEIDOU-3S IGSO-1S (C31) 
1 40549U 15019A   26176.81692014 -.00000174  00000+0  00000+0 0  9992
2 40549  49.1775 295.3568 0039037 191.6631 171.6620  1.00249619 41161
GPS BIIF-10 (PRN 08)    
1 40730U 15033A   26177.19577832 -.00000036  00000+0  00000+0 0  9999
2 40730  53.9753 266.7149 0115154  30.2445 330.4598  2.00555927 80171
BEIDOU-3S M2S (C58)     
1 40748U 15037A   26174.22980179 -.00000108  00000+0  00000+0 0  9995
2 40748  54.8652 301.8377 0008569 258.4474 101.4494  1.86231957 74237
BEIDOU-3S M1S (C57)     
1 40749U 15037B   26175.51021828 -.00000109  00000+0  00000+0 0  9997
2 40749  54.8605 301.7817 0003283  62.2648 297.7606  1.86254971 74264
GSAT0206 (GALILEO 10)   
1 40890U 15045B   26175.49628500  .00000051  00000+0  00000+0 0  9995
2 40890  54.9433 221.4024 0001685 336.0482  24.0274  1.70473861 67168
BEIDOU-3S IGSO-2S (C56) 
1 40938U 15053A   26177.68456692 -.00000116  00000+0  00000+0 0  9994
2 40938  49.2053 258.6677 0065523 192.9538 164.2588  1.00257789 39441
